[{"OBJECT_NAME":"INTELSAT 23 (IS-23)","OBJECT_ID":"2012-057A","EPOCH":"2026-03-03T12:06:41.479200","MEAN_MOTION":1.00274122,"ECCENTRICITY":0.0001014,"INCLINATION":0.0462,"RA_OF_ASC_NODE":260.5275,"ARG_OF_PERICENTER":86.4678,"MEAN_ANOMALY":302.9453,"EPHEMERIS_TYPE":0,"CLASSIFICATION_TYPE":"U","NORAD_CAT_ID":38867,"ELEMENT_SET_NO":999,"REV_AT_EPOCH":4889,"BSTAR":0,"MEAN_MOTION_DOT":-2.99e-6,"MEAN_MOTION_DDOT":0},{"OBJECT_NAME":"FM-6","OBJECT_ID":"2013-058A","EPOCH":"2026-03-03T16:56:51.766944","MEAN_MOTION":1.00269099,"ECCENTRICITY":0.0002888,"INCLINATION":0.0218,"RA_OF_ASC_NODE":129.3351,"ARG_OF_PERICENTER":53.1084,"MEAN_ANOMALY":117.0447,"EPHEMERIS_TYPE":0,"CLASSIFICATION_TYPE":"U","NORAD_CAT_ID":39360,"ELEMENT_SET_NO":999,"REV_AT_EPOCH":4501,"BSTAR":0,"MEAN_MOTION_DOT":-3.0e-7,"MEAN_MOTION_DDOT":0},{"OBJECT_NAME":"INTELSAT 30 (IS-30)","OBJECT_ID":"2014-062A","EPOCH":"2026-03-03T13:37:25.878432","MEAN_MOTION":1.00271059,"ECCENTRICITY":0.0001162,"INCLINATION":0.0137,"RA_OF_ASC_NODE":82.8937,"ARG_OF_PERICENTER":26.6195,"MEAN_ANOMALY":161.1234,"EPHEMERIS_TYPE":0,"CLASSIFICATION_TYPE":"U","NORAD_CAT_ID":40271,"ELEMENT_SET_NO":999,"REV_AT_EPOCH":573,"BSTAR":0,"MEAN_MOTION_DOT":-1.65e-6,"MEAN_MOTION_DDOT":0},{"OBJECT_NAME":"DIRECTV 14","OBJECT_ID":"2014-078B","EPOCH":"2026-03-03T13:36:10.997280","MEAN_MOTION":1.00272482,"ECCENTRICITY":4.29e-5,"INCLINATION":0.021,"RA_OF_ASC_NODE":118.638,"ARG_OF_PERICENTER":40.9367,"MEAN_ANOMALY":106.5486,"EPHEMERIS_TYPE":0,"CLASSIFICATION_TYPE":"U","NORAD_CAT_ID":40333,"ELEMENT_SET_NO":999,"REV_AT_EPOCH":4098,"BSTAR":0,"MEAN_MOTION_DOT":-1.4e-6,"MEAN_MOTION_DDOT":0},{"OBJECT_NAME":"DIRECTV 15","OBJECT_ID":"2015-026A","EPOCH":"2026-03-03T15:17:53.750688","MEAN_MOTION":1.00271646,"ECCENTRICITY":8.3e-5,"INCLINATION":0.0184,"RA_OF_ASC_NODE":106.3479,"ARG_OF_PERICENTER":103.5608,"MEAN_ANOMALY":78.081,"EPHEMERIS_TYPE":0,"CLASSIFICATION_TYPE":"U","NORAD_CAT_ID":40663,"ELEMENT_SET_NO":999,"REV_AT_EPOCH":3940,"BSTAR":0,"MEAN_MOTION_DOT":-1.17e-6,"MEAN_MOTION_DDOT":0},{"OBJECT_NAME":"SKY MEXICO-1","OBJECT_ID":"2015-026B","EPOCH":"2026-03-03T18:43:02.592768","MEAN_MOTION":1.00269918,"ECCENTRICITY":0.0002243,"INCLINATION":0.0197,"RA_OF_ASC_NODE":131.1785,"ARG_OF_PERICENTER":231.6108,"MEAN_ANOMALY":0.7049,"EPHEMERIS_TYPE":0,"CLASSIFICATION_TYPE":"U","NORAD_CAT_ID":40664,"ELEMENT_SET_NO":999,"REV_AT_EPOCH":3939,"BSTAR":0,"MEAN_MOTION_DOT":-2.48e-6,"MEAN_MOTION_DDOT":0},{"OBJECT_NAME":"INTELSAT 34 (IS-34)","OBJECT_ID":"2015-039A","EPOCH":"2026-03-03T18:56:47.772384","MEAN_MOTION":1.00270547,"ECCENTRICITY":8.4e-6,"INCLINATION":0.0342,"RA_OF_ASC_NODE":282.0217,"ARG_OF_PERICENTER":309.0996,"MEAN_ANOMALY":159.131,"EPHEMERIS_TYPE":0,"CLASSIFICATION_TYPE":"U","NORAD_CAT_ID":40874,"ELEMENT_SET_NO":999,"REV_AT_EPOCH":3856,"BSTAR":0,"MEAN_MOTION_DOT":-2.99e-6,"MEAN_MOTION_DDOT":0},{"OBJECT_NAME":"INTELSAT 31 (IS-31)","OBJECT_ID":"2016-035A","EPOCH":"2026-03-03T13:37:25.878432","MEAN_MOTION":1.00271002,"ECCENTRICITY":0.0001912,"INCLINATION":0.0397,"RA_OF_ASC_NODE":252.5846,"ARG_OF_PERICENTER":338.6854,"MEAN_ANOMALY":39.3589,"EPHEMERIS_TYPE":0,"CLASSIFICATION_TYPE":"U","NORAD_CAT_ID":41581,"ELEMENT_SET_NO":999,"REV_AT_EPOCH":3562,"BSTAR":0,"MEAN_MOTION_DOT":-1.65e-6,"MEAN_MOTION_DDOT":0},{"OBJECT_NAME":"INTELSAT 36 (IS-36)","OBJECT_ID":"2016-053A","EPOCH":"2026-03-03T18:23:08.962944","MEAN_MOTION":1.00268609,"ECCENTRICITY":0.0001195,"INCLINATION":0.0218,"RA_OF_ASC_NODE":121.9316,"ARG_OF_PERICENTER":211.6577,"MEAN_ANOMALY":172.2393,"EPHEMERIS_TYPE":0,"CLASSIFICATION_TYPE":"U","NORAD_CAT_ID":41747,"ELEMENT_SET_NO":999,"REV_AT_EPOCH":3490,"BSTAR":0,"MEAN_MOTION_DOT":0,"MEAN_MOTION_DDOT":0},{"OBJECT_NAME":"INTELSAT 32E (IS-32E)","OBJECT_ID":"2017-007B","EPOCH":"2026-03-03T19:00:17.436672","MEAN_MOTION":1.00269682,"ECCENTRICITY":4.32e-5,"INCLINATION":0.0185,"RA_OF_ASC_NODE":128.1858,"ARG_OF_PERICENTER":134.6982,"MEAN_ANOMALY":140.5442,"EPHEMERIS_TYPE":0,"CLASSIFICATION_TYPE":"U","NORAD_CAT_ID":41945,"ELEMENT_SET_NO":999,"REV_AT_EPOCH":3316,"BSTAR":0,"MEAN_MOTION_DOT":-2.83e-6,"MEAN_MOTION_DDOT":0},{"OBJECT_NAME":"INTELSAT 35E (IS-35E)","OBJECT_ID":"2017-041A","EPOCH":"2026-03-03T19:02:47.198112","MEAN_MOTION":1.00271123,"ECCENTRICITY":0.0002241,"INCLINATION":0.0321,"RA_OF_ASC_NODE":253.2443,"ARG_OF_PERICENTER":88.302,"MEAN_ANOMALY":71.1747,"EPHEMERIS_TYPE":0,"CLASSIFICATION_TYPE":"U","NORAD_CAT_ID":42818,"ELEMENT_SET_NO":999,"REV_AT_EPOCH":3175,"BSTAR":0,"MEAN_MOTION_DOT":-2.52e-6,"MEAN_MOTION_DDOT":0},{"OBJECT_NAME":"INTELSAT 37E (IS-37E)","OBJECT_ID":"2017-059A","EPOCH":"2026-03-03T19:07:31.744416","MEAN_MOTION":1.00269268,"ECCENTRICITY":0.0002172,"INCLINATION":0.0264,"RA_OF_ASC_NODE":150.0893,"ARG_OF_PERICENTER":195.6789,"MEAN_ANOMALY":84.6867,"EPHEMERIS_TYPE":0,"CLASSIFICATION_TYPE":"U","NORAD_CAT_ID":42950,"ELEMENT_SET_NO":999,"REV_AT_EPOCH":3100,"BSTAR":0,"MEAN_MOTION_DOT":0,"MEAN_MOTION_DDOT":0},{"OBJECT_NAME":"AZERSPACE 2 (IS-38)","OBJECT_ID":"2018-074A","EPOCH":"2026-03-03T16:00:04.708224","MEAN_MOTION":1.00270112,"ECCENTRICITY":0.000147,"INCLINATION":0.0253,"RA_OF_ASC_NODE":148.8353,"ARG_OF_PERICENTER":204.6074,"MEAN_ANOMALY":93.1255,"EPHEMERIS_TYPE":0,"CLASSIFICATION_TYPE":"U","NORAD_CAT_ID":43632,"ELEMENT_SET_NO":999,"REV_AT_EPOCH":2738,"BSTAR":0,"MEAN_MOTION_DOT":0,"MEAN_MOTION_DDOT":0},{"OBJECT_NAME":"HORIZONS-3E","OBJECT_ID":"2018-074B","EPOCH":"2026-03-03T18:18:06.480000","MEAN_MOTION":1.00271508,"ECCENTRICITY":6.03e-5,"INCLINATION":0.0098,"RA_OF_ASC_NODE":203.9545,"ARG_OF_PERICENTER":126.7918,"MEAN_ANOMALY":274.2678,"EPHEMERIS_TYPE":0,"CLASSIFICATION_TYPE":"U","NORAD_CAT_ID":43633,"ELEMENT_SET_NO":999,"REV_AT_EPOCH":2728,"BSTAR":0,"MEAN_MOTION_DOT":-4.5e-7,"MEAN_MOTION_DDOT":0},{"OBJECT_NAME":"AT&T T-16","OBJECT_ID":"2019-034A","EPOCH":"2026-03-03T13:35:48.533280","MEAN_MOTION":1.00268498,"ECCENTRICITY":7.11e-5,"INCLINATION":0.0237,"RA_OF_ASC_NODE":100.2971,"ARG_OF_PERICENTER":64.4362,"MEAN_ANOMALY":99.6581,"EPHEMERIS_TYPE":0,"CLASSIFICATION_TYPE":"U","NORAD_CAT_ID":44333,"ELEMENT_SET_NO":999,"REV_AT_EPOCH":2457,"BSTAR":0,"MEAN_MOTION_DOT":-1.29e-6,"MEAN_MOTION_DDOT":0},{"OBJECT_NAME":"INTELSAT 39 (IS-39)","OBJECT_ID":"2019-049B","EPOCH":"2026-03-03T18:21:20.073024","MEAN_MOTION":1.00268938,"ECCENTRICITY":6.4e-5,"INCLINATION":0.0248,"RA_OF_ASC_NODE":154.886,"ARG_OF_PERICENTER":355.3734,"MEAN_ANOMALY":348.5518,"EPHEMERIS_TYPE":0,"CLASSIFICATION_TYPE":"U","NORAD_CAT_ID":44476,"ELEMENT_SET_NO":999,"REV_AT_EPOCH":2407,"BSTAR":0,"MEAN_MOTION_DOT":0,"MEAN_MOTION_DDOT":0},{"OBJECT_NAME":"GALAXY 30 (G-30)","OBJECT_ID":"2020-056C","EPOCH":"2026-03-03T16:54:14.517216","MEAN_MOTION":1.00272514,"ECCENTRICITY":0.0002192,"INCLINATION":0.0158,"RA_OF_ASC_NODE":120.6788,"ARG_OF_PERICENTER":220.8853,"MEAN_ANOMALY":308.4406,"EPHEMERIS_TYPE":0,"CLASSIFICATION_TYPE":"U","NORAD_CAT_ID":46114,"ELEMENT_SET_NO":999,"REV_AT_EPOCH":2023,"BSTAR":0,"MEAN_MOTION_DOT":2.3e-7,"MEAN_MOTION_DDOT":0}]
